STARLINK-30069          
1 56834U 23079M   26067.48212902 -.00002416  00000+0 -80472-4 0  9995
2 56834  42.9986 110.4464 0000469 272.6695  87.4103 15.26726881152740
STARLINK-35437          
1 66563U 25268G   26068.18425030  .00032250  00000+0  11759-2 0  9990
2 66563  43.0025 349.8196 0002268 262.1517  97.9078 15.27591418 17881
